{"type": "FeatureCollection", "features": [ {"type": "Feature", "properties": {"norad_id": 44542, "name": "BEIDOU-3 M24 (C46)", "group": "beidou", "lat": -11.271800160252862, "lon": 17.03869682547756, "alt_km": 21556.220918979125, "timestamp": "2025-12-18T13:51:49.949117+00:00", "meta": {"OBJECT_NAME": "BEIDOU-3 M24 (C46)", "OBJECT_ID": "2019-061A", "EPOCH": "2025-12-16T03:22:44.327712", "MEAN_MOTION": 1.86229353, "ECCENTRICITY": 0.00096014, "INCLINATION": 54.4001, "RA_OF_ASC_NODE": 188.9011, "ARG_OF_PERICENTER": 24.8001, "MEAN_ANOMALY": 335.316, "EPHEMERIS_TYPE": 0, "CLASSIFICATION_TYPE": "U", "NORAD_CAT_ID": 44542, "ELEMENT_SET_NO": 999, "REV_AT_EPOCH": 4238, "BSTAR": 0, "MEAN_MOTION_DOT": 1.15e-06, "MEAN_MOTION_DDOT": 0}, "tle": {"line1": "1 44542U 19061A   25350.14079083  .00000115  00000+0  00000+0 0  9998", "line2": "2 44542  54.4001 188.9011 0009601  24.8001 335.3160  1.86229353 42381"}}, "geometry": {"type": "Point", "coordinates": [17.03869682547756, -11.271800160252862]}}, {"type": "Feature", "properties": {"norad_id": 44543, "name": "BEIDOU-3 M23 (C45)", "group": "beidou", "lat": 51.13188782028088, "lon": -53.996693639112245, "alt_km": 21519.97733257653, "timestamp": "2025-12-18T13:51:49.949129+00:00", "meta": {"OBJECT_NAME": "BEIDOU-3 M23 (C45)", "OBJECT_ID": "2019-061B", "EPOCH": "2025-12-18T04:28:40.463616", "MEAN_MOTION": 1.86227759, "ECCENTRICITY": 0.00060655, "INCLINATION": 54.3991, "RA_OF_ASC_NODE": 188.8006, "ARG_OF_PERICENTER": 24.5513, "MEAN_ANOMALY": 179.8901, "EPHEMERIS_TYPE": 0, "CLASSIFICATION_TYPE": "U", "NORAD_CAT_ID": 44543, "ELEMENT_SET_NO": 999, "REV_AT_EPOCH": 4242, "BSTAR": 0, "MEAN_MOTION_DOT": 1.09e-06, "MEAN_MOTION_DDOT": 0}, "tle": {"line1": "1 44543U 19061B   25352.18657944  .00000109  00000+0  00000+0 0  9996", "line2": "2 44543  54.3991 188.8006 0006065  24.5513 179.8901  1.86227759 42425"}}, "geometry": {"type": "Point", "coordinates": [-53.996693639112245, 51.13188782028088]}}, {"type": "Feature", "properties": {"norad_id": 44709, "name": "BEIDOU-3 IGSO-3 (C40)", "group": "beidou", "lat": 42.44935790369175, "lon": 63.273416536071124, "alt_km": 35715.27910424215, "timestamp": "2025-12-18T13:51:49.949141+00:00", "meta": {"OBJECT_NAME": "BEIDOU-3 IGSO-3 (C40)", "OBJECT_ID": "2019-073A", "EPOCH": "2025-11-20T07:11:22.740000", "MEAN_MOTION": 1.00250097, "ECCENTRICITY": 0.0044538, "INCLINATION": 55.163, "RA_OF_ASC_NODE": 283.159, "ARG_OF_PERICENTER": 191.5856, "MEAN_ANOMALY": 168.2409, "EPHEMERIS_TYPE": 0, "CLASSIFICATION_TYPE": "U", "NORAD_CAT_ID": 44709, "ELEMENT_SET_NO": 999, "REV_AT_EPOCH": 2236, "BSTAR": 0, "MEAN_MOTION_DOT": -2.06e-06, "MEAN_MOTION_DDOT": 0}, "tle": {"line1": "1 44709U 19073A   25324.29956875 -.00000206  00000+0  00000+0 0  9998", "line2": "2 44709  55.1630 283.1590 0044538 191.5856 168.2409  1.00250097 22360"}}, "geometry": {"type": "Point", "coordinates": [63.273416536071124, 42.44935790369175]}}, {"type": "Feature", "properties": {"norad_id": 44793, "name": "BEIDOU-3 M22 (C44)", "group": "beidou", "lat": -43.951196806198745, "lon": -98.07852575845534, "alt_km": 21531.014598579233, "timestamp": "2025-12-18T13:51:49.949157+00:00", "meta": {"OBJECT_NAME": "BEIDOU-3 M22 (C44)", "OBJECT_ID": "2019-078A", "EPOCH": "2025-12-17T14:11:57.933600", "MEAN_MOTION": 1.86232151, "ECCENTRICITY": 0.00059947, "INCLINATION": 54.1037, "RA_OF_ASC_NODE": 306.2155, "ARG_OF_PERICENTER": 24.2976, "MEAN_ANOMALY": 335.7178, "EPHEMERIS_TYPE": 0, "CLASSIFICATION_TYPE": "U", "NORAD_CAT_ID": 44793, "ELEMENT_SET_NO": 999, "REV_AT_EPOCH": 4126, "BSTAR": 0, "MEAN_MOTION_DOT": -8.9e-07, "MEAN_MOTION_DDOT": 0}, "tle": {"line1": "1 44793U 19078A   25351.59164275 -.00000089  00000+0  00000+0 0  9993", "line2": "2 44793  54.1037 306.2155 0005994  24.2976 335.7178  1.86232151 41264"}}, "geometry": {"type": "Point", "coordinates": [-98.07852575845534, -43.951196806198745]}}, {"type": "Feature", "properties": {"norad_id": 44794, "name": "BEIDOU-3 M21 (C43)", "group": "beidou", "lat": -22.91022292389133, "lon": 143.94700629141929, "alt_km": 21542.408296216247, "timestamp": "2025-12-18T13:51:49.949169+00:00", "meta": {"OBJECT_NAME": "BEIDOU-3 M21 (C43)", "OBJECT_ID": "2019-078B", "EPOCH": "2025-12-16T15:43:55.727904", "MEAN_MOTION": 1.86227668, "ECCENTRICITY": 0.00041169, "INCLINATION": 54.078, "RA_OF_ASC_NODE": 306.2132, "ARG_OF_PERICENTER": 11.942, "MEAN_ANOMALY": 348.0544, "EPHEMERIS_TYPE": 0, "CLASSIFICATION_TYPE": "U", "NORAD_CAT_ID": 44794, "ELEMENT_SET_NO": 999, "REV_AT_EPOCH": 4125, "BSTAR": 0, "MEAN_MOTION_DOT": -9.5e-07, "MEAN_MOTION_DDOT": 0}, "tle": {"line1": "1 44794U 19078B   25350.65550611 -.00000095  00000+0  00000+0 0  9990", "line2": "2 44794  54.0780 306.2132 0004116  11.9420 348.0544  1.86227668 41256"}}, "geometry": {"type": "Point", "coordinates": [143.94700629141929, -22.91022292389133]}}, {"type": "Feature", "properties": {"norad_id": 44864, "name": "BEIDOU-3 M19 (C41)", "group": "beidou", "lat": 35.844378499402964, "lon": 97.43759926763535, "alt_km": 21548.612488518433, "timestamp": "2025-12-18T13:51:49.949180+00:00", "meta": {"OBJECT_NAME": "BEIDOU-3 M19 (C41)", "OBJECT_ID": "2019-090A", "EPOCH": "2025-12-16T21:16:08.319360", "MEAN_MOTION": 1.86231655, "ECCENTRICITY": 0.00181701, "INCLINATION": 56.3969, "RA_OF_ASC_NODE": 68.8236, "ARG_OF_PERICENTER": 285.0658, "MEAN_ANOMALY": 65.3992, "EPHEMERIS_TYPE": 0, "CLASSIFICATION_TYPE": "U", "NORAD_CAT_ID": 44864, "ELEMENT_SET_NO": 999, "REV_AT_EPOCH": 4083, "BSTAR": 0, "MEAN_MOTION_DOT": -7.7e-07, "MEAN_MOTION_DDOT": 0}, "tle": {"line1": "1 44864U 19090A   25350.88620740 -.00000077  00000+0  00000+0 0  9998", "line2": "2 44864  56.3969  68.8236 0018170 285.0658  65.3992  1.86231655 40836"}}, "geometry": {"type": "Point", "coordinates": [97.43759926763535, 35.844378499402964]}}, {"type": "Feature", "properties": {"norad_id": 44865, "name": "BEIDOU-3 M20 (C42)", "group": "beidou", "lat": 36.76453746987386, "lon": -140.9157839531142, "alt_km": 21563.947342389933, "timestamp": "2025-12-18T13:51:49.949191+00:00", "meta": {"OBJECT_NAME": "BEIDOU-3 M20 (C42)", "OBJECT_ID": "2019-090B", "EPOCH": "2025-12-14T14:16:43.218624", "MEAN_MOTION": 1.86231589, "ECCENTRICITY": 0.00151163, "INCLINATION": 56.3967, "RA_OF_ASC_NODE": 68.9336, "ARG_OF_PERICENTER": 297.6834, "MEAN_ANOMALY": 46.2212, "EPHEMERIS_TYPE": 0, "CLASSIFICATION_TYPE": "U", "NORAD_CAT_ID": 44865, "ELEMENT_SET_NO": 999, "REV_AT_EPOCH": 4077, "BSTAR": 0, "MEAN_MOTION_DOT": -8.3e-07, "MEAN_MOTION_DDOT": 0}, "tle": {"line1": "1 44865U 19090B   25348.59494466 -.00000083  00000+0  00000+0 0  9995", "line2": "2 44865  56.3967  68.9336 0015116 297.6834  46.2212  1.86231589 40771"}}, "geometry": {"type": "Point", "coordinates": [-140.9157839531142, 36.76453746987386]}}, {"type": "Feature", "properties": {"norad_id": 45344, "name": "BEIDOU-3 G2 (C60)", "group": "beidou", "lat": -1.1868487095001512, "lon": 15.460465578839582, "alt_km": 35786.78005765673, "timestamp": "2025-12-18T13:51:49.949204+00:00", "meta": {"OBJECT_NAME": "BEIDOU-3 G2 (C60)", "OBJECT_ID": "2020-017A", "EPOCH": "2025-12-18T01:41:31.996608", "MEAN_MOTION": 1.0027506, "ECCENTRICITY": 0.00022263, "INCLINATION": 2.507, "RA_OF_ASC_NODE": 43.9732, "ARG_OF_PERICENTER": 232.7802, "MEAN_ANOMALY": 275.5877, "EPHEMERIS_TYPE": 0, "CLASSIFICATION_TYPE": "U", "NORAD_CAT_ID": 45344, "ELEMENT_SET_NO": 999, "REV_AT_EPOCH": 2144, "BSTAR": 0, "MEAN_MOTION_DOT": -1.18e-06, "MEAN_MOTION_DDOT": 0}, "tle": {"line1": "1 45344U 20017A   25352.07050922 -.00000118  00000+0  00000+0 0  9991", "line2": "2 45344   2.5070  43.9732 0002226 232.7802 275.5877  1.00275060 21443"}}, "geometry": {"type": "Point", "coordinates": [15.460465578839582, -1.1868487095001512]}}, {"type": "Feature", "properties": {"norad_id": 45807, "name": "BEIDOU-3 G3 (C61)", "group": "beidou", "lat": -0.6842309074167195, "lon": 46.016265009228, "alt_km": 35762.95816847949, "timestamp": "2025-12-18T13:51:49.949216+00:00", "meta": {"OBJECT_NAME": "BEIDOU-3 G3 (C61)", "OBJECT_ID": "2020-040A", "EPOCH": "2025-12-18T03:58:21.586368", "MEAN_MOTION": 1.00271623, "ECCENTRICITY": 0.00064116, "INCLINATION": 2.004, "RA_OF_ASC_NODE": 66.6339, "ARG_OF_PERICENTER": 309.1299, "MEAN_ANOMALY": 241.4399, "EPHEMERIS_TYPE": 0, "CLASSIFICATION_TYPE": "U", "NORAD_CAT_ID": 45807, "ELEMENT_SET_NO": 999, "REV_AT_EPOCH": 2025, "BSTAR": 0, "MEAN_MOTION_DOT": -3.3e-06, "MEAN_MOTION_DDOT": 0}, "tle": {"line1": "1 45807U 20040A   25352.16552762 -.00000330  00000+0  00000+0 0  9996", "line2": "2 45807   2.0040  66.6339 0006411 309.1299 241.4399  1.00271623 20253"}}, "geometry": {"type": "Point", "coordinates": [46.016265009228, -0.6842309074167195]}}, {"type": "Feature", "properties": {"norad_id": 56564, "name": "BEIDOU-3 G4 (C62)", "group": "beidou", "lat": 0.38975327406123356, "lon": 95.41702046587642, "alt_km": 35782.89109242773, "timestamp": "2025-12-18T13:51:49.949228+00:00", "meta": {"OBJECT_NAME": "BEIDOU-3 G4 (C62)", "OBJECT_ID": "2023-066A", "EPOCH": "2025-12-18T05:29:48.091776", "MEAN_MOTION": 1.00271695, "ECCENTRICITY": 0.00027503, "INCLINATION": 0.8034, "RA_OF_ASC_NODE": 302.4816, "ARG_OF_PERICENTER": 226.9983, "MEAN_ANOMALY": 160.1273, "EPHEMERIS_TYPE": 0, "CLASSIFICATION_TYPE": "U", "NORAD_CAT_ID": 56564, "ELEMENT_SET_NO": 999, "REV_AT_EPOCH": 958, "BSTAR": 0, "MEAN_MOTION_DOT": -8.5e-07, "MEAN_MOTION_DDOT": 0}, "tle": {"line1": "1 56564U 23066A   25352.22902884 -.00000085  00000+0  00000+0 0  9997", "line2": "2 56564   0.8034 302.4816 0002750 226.9983 160.1273  1.00271695  9583"}}, "geometry": {"type": "Point", "coordinates": [95.41702046587642, 0.38975327406123356]}}]}